[{"OBJECT_NAME":"FLOCK 4G-5","OBJECT_ID":"2025-009BG","EPOCH":"2026-03-09T10:57:11.608704","MEAN_MOTION":15.28679529,"ECCENTRICITY":0.00020946,"INCLINATION":97.4058,"RA_OF_ASC_NODE":151.2478,"ARG_OF_PERICENTER":314.5072,"MEAN_ANOMALY":45.5996,"EPHEMERIS_TYPE":0,"CLASSIFICATION_TYPE":"U","NORAD_CAT_ID":62663,"ELEMENT_SET_NO":999,"REV_AT_EPOCH":6369,"BSTAR":0.00040688068,"MEAN_MOTION_DOT":0.00011278,"MEAN_MOTION_DDOT":0},{"OBJECT_NAME":"STARLINK-34656","OBJECT_ID":"2025-161T","EPOCH":"2026-03-09T22:22:12.869760","MEAN_MOTION":15.30177763,"ECCENTRICITY":0.00012204,"INCLINATION":53.1587,"RA_OF_ASC_NODE":293.3117,"ARG_OF_PERICENTER":71.4822,"MEAN_ANOMALY":288.6311,"EPHEMERIS_TYPE":0,"CLASSIFICATION_TYPE":"U","NORAD_CAT_ID":65032,"ELEMENT_SET_NO":999,"REV_AT_EPOCH":3536,"BSTAR":0.0009338293,"MEAN_MOTION_DOT":0.00027381,"MEAN_MOTION_DDOT":0}]
